NORAD_CAT_ID,OBJECT_NAME,OBJECT_TYPE,EPOCH,MEAN_MOTION,ECCENTRICITY,INCLINATION,RA_OF_ASC_NODE,ARG_OF_PERICENTER,MEAN_ANOMALY,BSTAR,MEAN_MOTION_DOT,MEAN_MOTION_DDOT,TLE_LINE0,TLE_LINE1,TLE_LINE2,SEMIMAJOR_AXIS,PERIOD,APOGEE,PERIGEE,DECAYED
52342.0,STARLINK-3850,PAYLOAD,2022-06-04 00:36:18,15.73252996,0.0001703,53.2143,262.3701,33.4325,326.6802,7.8199e-05,0.00010392,0.0,0 STARLINK-3850,1 52342U 22045M   22155.02521011  .00010392  00000-0  78199-4 0  9999,2 52342  53.2143 262.3701 0001703  33.4325 326.6802 15.73252996  8080,6727.744000000002,91.53,350.755,348.463,0.0
52342.0,STARLINK-3850,PAYLOAD,2022-06-04 11:16:39,15.73236077,0.0002173,53.214,260.1699,40.6172,319.501,0.00014196,0.0001938,0.0,0 STARLINK-3850,1 52342U 22045M   22155.46990369  .00019380  00000-0  14196-3 0  9995,2 52342  53.2140 260.1699 0002173  40.6172 319.5010 15.73236077  8153,6727.792,91.531,351.119,348.195,0.0
52342.0,STARLINK-3850,PAYLOAD,2022-06-05 22:00:00,15.73234548,0.000203,53.2144,253.0112,20.5474,258.0645,-1.9644e-05,-3.382e-05,0.0,0 STARLINK-3850,1 52342U 22045M   22156.91667824 -.00003382  00000-0 -19644-4 0  9994,2 52342  53.2144 253.0112 0002030  20.5474 258.0645 15.73234548  8378,6727.797,91.531,351.027,348.296,0.0
52342.0,STARLINK-3850,PAYLOAD,2022-06-06 14:00:01,15.73214285,0.0002266,53.214,249.7131,25.4381,71.0799,-0.00039837,-0.00056199,0.0,0 STARLINK-3850,1 52342U 22045M   22157.58334491 -.00056199  00000-0 -39837-3 0  9998,2 52342  53.2140 249.7131 0002266  25.4381  71.0799 15.73214285  8480,6727.854,91.532,351.244,348.195,0.0
52342.0,STARLINK-3850,PAYLOAD,2022-06-06 22:00:00,15.73189743,0.000212,53.2136,248.0624,20.5902,164.8655,-0.0002075,-0.0002963,0.0,0 STARLINK-3850,1 52342U 22045M   22157.91667824 -.00029630  00000-0 -20750-3 0  9998,2 52342  53.2136 248.0624 0002120  20.5902 164.8655 15.73189743  1304,6727.924,91.534,351.216,348.36300000000006,0.0
52342.0,STARLINK-3850,PAYLOAD,2022-06-07 06:00:00,15.73184187,0.0001985,53.2141,246.4117,24.09,250.2714,0.00040689,0.00056835,0.0,0 STARLINK-3850,1 52342U 22045M   22158.25001157  .00056835  00000-0  40689-3 0  9995,2 52342  53.2141 246.4117 0001985  24.0900 250.2714 15.73184187  8584,6727.94,91.534,351.141,348.47,0.0
52342.0,STARLINK-3850,PAYLOAD,2022-06-07 14:00:01,15.73220048,0.0002333,53.2142,244.7643,23.347,339.9409,-6.0815e-05,-9.156e-05,0.0,0 STARLINK-3850,1 52342U 22045M   22158.58334491 -.00009156  00000-0 -60815-4 0  9991,2 52342  53.2142 244.7643 0002333  23.3470 339.9409 15.73220048  1308,6727.8380000000025,91.532,351.273,348.1330000000001,0.0
52342.0,STARLINK-3850,PAYLOAD,2022-06-07 22:00:00,15.7322785,0.0002316,53.2141,243.1134,24.2582,68.0129,-5.8682e-05,-8.859999999999999e-05,0.0,0 STARLINK-3850,1 52342U 22045M   22158.91667824 -.00008860  00000-0 -58682-4 0  9997,2 52342  53.2141 243.1134 0002316  24.2582  68.0129 15.73227850  8696,6727.816,91.532,351.23900000000015,348.12300000000016,0.0
52342.0,STARLINK-3850,PAYLOAD,2022-06-08 14:00:01,15.73358534,0.0002332,53.2159,239.8136,23.5796,246.575,-0.0053963,-0.00702789,0.0,0 STARLINK-3850,1 52342U 22045M   22159.58334491 -.00702789  00000-0 -53963-2 0  9998,2 52342  53.2159 239.8136 0002332  23.5796 246.5750 15.73358534  8794,6727.443,91.524,350.87699999999984,347.73900000000015,0.0
52342.0,STARLINK-3850,PAYLOAD,2022-06-08 22:00:01,15.73064333,0.0002231,53.2168,238.1607,15.3638,343.5983,-0.0040417,-0.00530516,0.0,0 STARLINK-3850,1 52342U 22045M   22159.91668981 -.00530516  00000-0 -40417-2 0  9996,2 52342  53.2168 238.1607 0002231  15.3638 343.5983 15.73064333  8844,6728.281999999997,91.541,351.648,348.646,0.0
52342.0,STARLINK-3850,PAYLOAD,2022-06-09 06:00:00,15.7268353,0.0002197,53.2174,236.5092,20.144,67.3045,-0.0056726,-0.00716394,0.0,0 STARLINK-3850,1 52342U 22045M   22160.25001157 -.00716394  00000-0 -56726-2 0  9991,2 52342  53.2174 236.5092 0002197  20.1440  67.3045 15.72683530  8909,6729.368,91.563,352.711,349.755,0.0
52342.0,STARLINK-3850,PAYLOAD,2022-06-09 14:00:01,15.72173574,0.0002558,53.2175,234.8618,18.9146,156.531,-0.0057973,-0.0071642,0.0,0 STARLINK-3850,1 52342U 22045M   22160.58334491 -.00716420  00000-0 -57973-2 0  9992,2 52342  53.2175 234.8618 0002558  18.9146 156.5310 15.72173574  1309,6730.823,91.593,354.41,350.966,0.0
52342.0,STARLINK-3850,PAYLOAD,2022-06-09 22:00:00,15.71665097,0.0002174,53.2175,233.2121,11.7326,251.0993,-0.0059523,-0.00719428,0.0,0 STARLINK-3850,1 52342U 22045M   22160.91667824 -.00719428  00000-0 -59523-2 0  9992,2 52342  53.2175 233.2121 0002174  11.7326 251.0993 15.71665097  1309,6732.275,91.623,355.603,352.676,0.0
52342.0,STARLINK-3850,PAYLOAD,2022-06-10 08:00:01,15.71029381,0.0002663,53.2176,231.1537,7.3039,93.8972,-0.0061357,-0.00721794,0.0,0 STARLINK-3850,1 52342U 22045M   22161.33334491 -.00721794  00000-0 -61357-2 0  9997,2 52342  53.2176 231.1537 0002663   7.3039  93.8972 15.71029381  9074,6734.090999999999,91.66,357.749,354.163,0.0
52342.0,STARLINK-3850,PAYLOAD,2022-06-10 14:00:01,15.70652049,0.0003374,53.2176,229.9209,315.9803,119.7808,-0.0063171,-0.00730812,0.0,0 STARLINK-3850,1 52342U 22045M   22161.58334491 -.00730812  00000-0 -63171-2 0  9991,2 52342  53.2176 229.9209 0003374 315.9803 119.7808 15.70652049  1308,6735.169,91.682,359.307,354.76199999999994,0.0
52342.0,STARLINK-3850,PAYLOAD,2022-06-10 22:00:00,15.70140765,0.0001658,53.2174,228.2747,324.6139,196.6964,-0.0064411,-0.00728966,0.0,0 STARLINK-3850,1 52342U 22045M   22161.91667824 -.00728966  00000-0 -64411-2 0  9992,2 52342  53.2174 228.2747 0001658 324.6139 196.6964 15.70140765  1301,6736.630999999999,91.712,359.61300000000006,357.379,0.0
52342.0,STARLINK-3850,PAYLOAD,2022-06-11 14:00:01,15.69106663,0.0003663,53.2175,224.9914,274.1883,56.3814,-0.0064602,-0.00702988,0.0,0 STARLINK-3850,1 52342U 22045M   22162.58334491 -.00702988  00000-0 -64602-2 0  9995,2 52342  53.2175 224.9914 0003663 274.1883  56.3814 15.69106663  9260,6739.590999999999,91.772,363.925,358.987,0.0
52342.0,STARLINK-3850,PAYLOAD,2022-06-11 22:00:00,15.68608846,0.000179,53.2176,223.349,273.8176,140.458,-0.006812,-0.00723748,0.0,0 STARLINK-3850,1 52342U 22045M   22162.91667824 -.00723748  00000-0 -68120-2 0  9997,2 52342  53.2176 223.3490 0001790 273.8176 140.4580 15.68608846  1304,6741.017,91.801,364.088,361.675,0.0
52342.0,STARLINK-3850,PAYLOAD,2022-06-12 06:00:02,15.68098508,8.55e-05,53.2177,221.7094,32.1571,105.2804,-0.0069555,-0.00723397,0.0,0 STARLINK-3850,1 52342U 22045M   22163.25002315 -.00723397  00000-0 -69555-2 0  9996,2 52342  53.2177 221.7094 0000855  32.1571 105.2804 15.68098508  9374,6742.479,91.831,364.921,363.768,0.0
52342.0,STARLINK-3850,PAYLOAD,2022-06-12 14:00:01,15.67581555,0.0001401,53.2177,220.073,52.5231,167.3335,-0.0069748999999999,-0.00711328,0.0,0 STARLINK-3850,1 52342U 22045M   22163.58334491 -.00711328  00000-0 -69749-2 0  9991,2 52342  53.2177 220.0730 0001401  52.5231 167.3335 15.67581555  1301,6743.9609999999975,91.861,366.771,364.882,0.0
52342.0,STARLINK-3850,PAYLOAD,2022-06-12 22:00:00,15.67075923,0.0001112,53.2175,218.4342,71.3528,230.374,-0.0072043,-0.00718938,0.0,0 STARLINK-3850,1 52342U 22045M   22163.91667824 -.00718938  00000-0 -72043-2 0  9992,2 52342  53.2175 218.4342 0001112  71.3528 230.3740 15.67075923  1304,6745.4119999999975,91.891,368.027,366.527,0.0
52342.0,STARLINK-3850,PAYLOAD,2022-06-13 14:00:01,15.66050789,0.0001257,53.2173,215.166,53.4739,50.1562,-0.0074061,-0.00709738,0.0,0 STARLINK-3850,1 52342U 22045M   22164.58334491 -.00709738  00000-0 -74061-2 0  9997,2 52342  53.2173 215.1660 0001257  53.4739  50.1562 15.66050789  9584,6748.355,91.951,371.069,369.372,0.0
52342.0,STARLINK-3850,PAYLOAD,2022-06-13 22:00:00,15.65543837,0.000123,53.2175,213.5307,69.5155,114.1469,-0.0076156,-0.00714588,0.0,0 STARLINK-3850,1 52342U 22045M   22164.91667824 -.00714588  00000-0 -76156-2 0  9999,2 52342  53.2175 213.5307 0001230  69.5155 114.1469 15.65543837  1306,6749.812,91.981,372.507,370.847,0.0
52342.0,STARLINK-3850,PAYLOAD,2022-06-14 14:00:01,15.64523459,0.0001107,53.2175,210.27,66.7101,275.1769,-0.0079172,-0.00713181,0.0,0 STARLINK-3850,1 52342U 22045M   22165.58334491 -.00713181  00000-0 -79172-2 0  9993,2 52342  53.2175 210.2700 0001107  66.7101 275.1769 15.64523459  9733,6752.746999999999,92.041,375.359,373.864,0.0
52342.0,STARLINK-3850,PAYLOAD,2022-06-14 22:00:00,15.64013629,0.0001107999999999,53.2176,208.6385,60.0128,0.0695,-0.0080908,-0.00714074,0.0,0 STARLINK-3850,1 52342U 22045M   22165.91667824 -.00714074  00000-0 -80908-2 0  9990,2 52342  53.2176 208.6385 0001108  60.0128   0.0695 15.64013629  1302,6754.214,92.071,376.827,375.331,0.0
52342.0,STARLINK-3850,PAYLOAD,2022-06-15 14:00:01,15.62991444,0.0001240999999999,53.2172,205.3851,71.5705,143.0603,-0.0083637,-0.00709312,0.0,0 STARLINK-3850,1 52342U 22045M   22166.58334491 -.00709312  00000-0 -83637-2 0  9996,2 52342  53.2172 205.3851 0001241  71.5705 143.0603 15.62991444  9893,6757.159000000002,92.131,379.862,378.185,0.0
52342.0,STARLINK-3850,PAYLOAD,2022-06-15 22:00:00,15.6248369,0.0001217,53.2174,203.7574,60.6045,230.3823,-0.0085902,-0.00713708,0.0,0 STARLINK-3850,1 52342U 22045M   22166.91667824 -.00713708  00000-0 -85902-2 0  9993,2 52342  53.2174 203.7574 0001217  60.6045 230.3823 15.62483690  1309,6758.621999999999,92.161,381.31,379.665,0.0
52342.0,STARLINK-3850,PAYLOAD,2022-06-16 02:00:01,15.62229912,0.0001313,53.2173,202.9446,60.6247,88.3094,-0.008692,-0.00714922,0.0,0 STARLINK-3850,1 52342U 22045M   22167.08334491 -.00714922  00000-0 -86920-2 0  9993,2 52342  53.2173 202.9446 0001313  60.6247  88.3094 15.62229912  1304,6759.354,92.176,382.107,380.332,0.0
52342.0,STARLINK-3850,PAYLOAD,2022-06-19 14:00:01,15.56875832,0.0001116,53.2172,185.9568,61.9598,308.4904,-0.010663,-0.00714221,0.0,0 STARLINK-3850,1 52342U 22045M   22170.58334491 -.00714221  00000-0 -10663-1 0  9994,2 52342  53.2172 185.9568 0001116  61.9598 308.4904 15.56875832  1309,6774.842,92.493,397.463,395.951,0.0
